[{"OBJECT_NAME":"CYGFM02","OBJECT_ID":"2016-078C","EPOCH":"2026-03-09T15:36:50.817024","MEAN_MOTION":15.57922145,"ECCENTRICITY":0.00067337,"INCLINATION":34.9409,"RA_OF_ASC_NODE":166.5135,"ARG_OF_PERICENTER":321.9691,"MEAN_ANOMALY":38.0558,"EPHEMERIS_TYPE":0,"CLASSIFICATION_TYPE":"U","NORAD_CAT_ID":41886,"ELEMENT_SET_NO":999,"REV_AT_EPOCH":51360,"BSTAR":0.00045552305,"MEAN_MOTION_DOT":0.00035326,"MEAN_MOTION_DDOT":0},{"OBJECT_NAME":"STARLINK-32335","OBJECT_ID":"2024-195S","EPOCH":"2026-03-09T22:00:01.999584","MEAN_MOTION":15.5379623,"ECCENTRICITY":0.00142813,"INCLINATION":53.1479,"RA_OF_ASC_NODE":149.8644,"ARG_OF_PERICENTER":3.406,"MEAN_ANOMALY":158.0753,"EPHEMERIS_TYPE":0,"CLASSIFICATION_TYPE":"U","NORAD_CAT_ID":61703,"ELEMENT_SET_NO":999,"REV_AT_EPOCH":583,"BSTAR":0.0040457397,"MEAN_MOTION_DOT":0.00274037,"MEAN_MOTION_DDOT":0}]
